APRIZESAT 2             
1 28366U 04025A   18063.19893790  .00000020  00000-0  20459-4 0  9996
2 28366  98.3319 333.8594 0107637 352.8422   7.1222 14.36634272716922
SAUDICOMSAT 1           
1 28369U 04025D   18062.79252291  .00000033  00000-0  19151-4 0  9990
2 28369  98.2310  14.3022 0032595 306.2157  53.6026 14.52416701724414
SAUDICOMSAT 2           
1 28370U 04025E   18063.08678632  .00000031  00000-0  20350-4 0  9997
2 28370  98.3335   8.6780 0059138  79.2745 281.5098 14.47357924722057
APRIZESAT 1             
1 28372U 04025G   18063.46127162  .00000020  00000-0  16979-4 0  9998
2 28372  98.2892  11.4689 0046791  15.1600 345.0984 14.49535984723277
NANOSAT-1               
1 28493U 04049B   18062.80070272  .00000075  00000-0  19477-4 0  9990
2 28493  98.1729 139.6849 0003306 247.5861 112.4997 14.73397925709143
SAUDICOMSAT 7           
1 31119U 07012C   18063.42782510  .00000044  00000-0  18146-4 0  9994
2 31119  97.9879  21.9724 0059395 324.5592  35.1669 14.61646369579975
SAUDICOMSAT 6           
1 31121U 07012E   18062.82369479  .00000050  00000-0  20273-4 0  9996
2 31121  98.0520  14.4576 0077537  35.9380 324.6999 14.58445042578647
SAUDICOMSAT 5           
1 31124U 07012H   18062.85379239  .00000054  00000-0  19544-4 0  9990
2 31124  97.9485  25.5513 0050447 290.3920  69.1868 14.63340120580523
SAUDICOMSAT 3           
1 31125U 07012J   18062.94831525  .00000072  00000-0  22050-4 0  9998
2 31125  97.9080  30.0684 0042013 254.5295 105.1267 14.65067862581113
SAUDICOMSAT 4           
1 31127U 07012L   18062.93598575  .00000049  00000-0  19658-4 0  9998
2 31127  98.0195  18.3175 0068175 359.1190   0.9879 14.60157668579253
APRIZESAT 4             
1 35684U 09041D   18062.81851628  .00000071  00000-0  17051-4 0  9992
2 35684  98.1619  13.3023 0046919 343.1781  73.8891 14.79109819463457
APRIZESAT 3             
1 35686U 09041F   18062.94031289  .00000044  00000-0  11798-4 0  9993
2 35686  98.2780  78.4790 0071877 249.3547 109.9949 14.87180177465744
AISSAT 1                
1 36797U 10035C   18063.38280606  .00000178  00000-0  26919-4 0  9999
2 36797  98.0602 185.3460 0010324 222.2749 137.7670 14.85991355413946
